{
  "type": "FeatureCollection",
  "features": [
    {
      "type": "Feature",
      "properties": {
        "norad_id": 66655,
        "name": "2025-274F",
        "group": "last-30-days",
        "lat": 39.665297356081496,
        "lon": 102.41562242687095,
        "alt_km": 593.8937732338072,
        "timestamp": "2025-12-14T18:52:54.242973+00:00",
        "meta_object_name": "2025-274F",
        "meta_object_id": "2025-274F",
        "meta_epoch": "2025-12-13T18:05:55.896288",
        "meta_mean_motion": 14.91097105,
        "meta_eccentricity": 0.00053388,
        "meta_inclination": 97.7326,
        "meta_ra_of_asc_node": 274.9347,
        "meta_arg_of_pericenter": 13.0674,
        "meta_mean_anomaly": 347.0682,
        "meta_ephemeris_type": 0,
        "meta_classification_type": "U",
        "meta_norad_cat_id": 66655,
        "meta_element_set_no": 999,
        "meta_rev_at_epoch": 255,
        "meta_bstar": 2.2343263e-05,
        "meta_mean_motion_dot": 1.66e-06,
        "meta_mean_motion_ddot": 0,
        "tle_line1": "1 66655U 25274F   25347.75411917  .00000166  00000+0  22343-4 0  9994",
        "tle_line2": "2 66655  97.7326 274.9347 0005338  13.0674 347.0682 14.91097105  2559"
      },
      "geometry": {
        "type": "Point",
        "coordinates": [
          102.41562242687095,
          39.665297356081496
        ]
      }
    },
    {
      "type": "Feature",
      "properties": {
        "norad_id": 66656,
        "name": "2025-274G",
        "group": "last-30-days",
        "lat": 24.41751349844505,
        "lon": 99.4920835548818,
        "alt_km": 590.8497362562784,
        "timestamp": "2025-12-14T18:52:54.242987+00:00",
        "meta_object_name": "2025-274G",
        "meta_object_id": "2025-274G",
        "meta_epoch": "2025-12-13T18:02:53.410848",
        "meta_mean_motion": 14.92283961,
        "meta_eccentricity": 0.00122931,
        "meta_inclination": 97.7387,
        "meta_ra_of_asc_node": 274.9361,
        "meta_arg_of_pericenter": 253.1043,
        "meta_mean_anomaly": 106.8828,
        "meta_ephemeris_type": 0,
        "meta_classification_type": "U",
        "meta_norad_cat_id": 66656,
        "meta_element_set_no": 999,
        "meta_rev_at_epoch": 255,
        "meta_bstar": 0.00045064417,
        "meta_mean_motion_dot": 4.551e-05,
        "meta_mean_motion_ddot": 0,
        "tle_line1": "1 66656U 25274G   25347.75200707  .00004551  00000+0  45064-3 0  9994",
        "tle_line2": "2 66656  97.7387 274.9361 0012293 253.1043 106.8828 14.92283961  2559"
      },
      "geometry": {
        "type": "Point",
        "coordinates": [
          99.4920835548818,
          24.41751349844505
        ]
      }
    },
    {
      "type": "Feature",
      "properties": {
        "norad_id": 66657,
        "name": "SPIRONE",
        "group": "last-30-days",
        "lat": 12.850356361492423,
        "lon": 97.73448511807194,
        "alt_km": 592.9648217345766,
        "timestamp": "2025-12-14T18:52:54.242997+00:00",
        "meta_object_name": "SPIRONE",
        "meta_object_id": "2025-274H",
        "meta_epoch": "2025-12-13T17:59:56.797152",
        "meta_mean_motion": 14.92462797,
        "meta_eccentricity": 0.00105891,
        "meta_inclination": 97.7382,
        "meta_ra_of_asc_node": 274.9382,
        "meta_arg_of_pericenter": 272.2353,
        "meta_mean_anomaly": 87.7653,
        "meta_ephemeris_type": 0,
        "meta_classification_type": "U",
        "meta_norad_cat_id": 66657,
        "meta_element_set_no": 999,
        "meta_rev_at_epoch": 255,
        "meta_bstar": 0.00044599217,
        "meta_mean_motion_dot": 4.523e-05,
        "meta_mean_motion_ddot": 0,
        "tle_line1": "1 66657U 25274H   25347.74996293  .00004523  00000+0  44599-3 0  9997",
        "tle_line2": "2 66657  97.7382 274.9382 0010589 272.2353  87.7653 14.92462797  2559"
      },
      "geometry": {
        "type": "Point",
        "coordinates": [
          97.73448511807194,
          12.850356361492423
        ]
      }
    },
    {
      "type": "Feature",
      "properties": {
        "norad_id": 66658,
        "name": "2025-274J",
        "group": "last-30-days",
        "lat": 1.6599507768953452,
        "lon": 96.187632280372,
        "alt_km": 592.9796110956095,
        "timestamp": "2025-12-14T18:52:54.243007+00:00",
        "meta_object_name": "2025-274J",
        "meta_object_id": "2025-274J",
        "meta_epoch": "2025-12-13T21:10:09.067296",
        "meta_mean_motion": 14.92633625,
        "meta_eccentricity": 0.00112069,
        "meta_inclination": 97.7386,
        "meta_ra_of_asc_node": 275.0726,
        "meta_arg_of_pericenter": 274.5849,
        "meta_mean_anomaly": 85.409,
        "meta_ephemeris_type": 0,
        "meta_classification_type": "U",
        "meta_norad_cat_id": 66658,
        "meta_element_set_no": 999,
        "meta_rev_at_epoch": 257,
        "meta_bstar": 0.00040041194,
        "meta_mean_motion_dot": 4.073e-05,
        "meta_mean_motion_ddot": 0,
        "tle_line1": "1 66658U 25274J   25347.88204939  .00004073  00000+0  40041-3 0  9990",
        "tle_line2": "2 66658  97.7386 275.0726 0011206 274.5849  85.4090 14.92633625  2572"
      },
      "geometry": {
        "type": "Point",
        "coordinates": [
          96.187632280372,
          1.6599507768953452
        ]
      }
    },
    {
      "type": "Feature",
      "properties": {
        "norad_id": 66659,
        "name": "JACK K",
        "group": "last-30-days",
        "lat": -10.300860832184968,
        "lon": 94.55142803739326,
        "alt_km": 592.3642255473778,
        "timestamp": "2025-12-14T18:52:54.243017+00:00",
        "meta_object_name": "JACK K",
        "meta_object_id": "2025-274K",
        "meta_epoch": "2025-12-13T17:54:01.705248",
        "meta_mean_motion": 14.92817201,
        "meta_eccentricity": 0.00119506,
        "meta_inclination": 97.7385,
        "meta_ra_of_asc_node": 274.9442,
        "meta_arg_of_pericenter": 276.5891,
        "meta_mean_anomaly": 83.3968,
        "meta_ephemeris_type": 0,
        "meta_classification_type": "U",
        "meta_norad_cat_id": 66659,
        "meta_element_set_no": 999,
        "meta_rev_at_epoch": 255,
        "meta_bstar": 0.00040681438,
        "meta_mean_motion_dot": 4.159e-05,
        "meta_mean_motion_ddot": 0,
        "tle_line1": "1 66659U 25274K   25347.74585307  .00004159  00000+0  40681-3 0  9992",
        "tle_line2": "2 66659  97.7385 274.9442 0011950 276.5891  83.3968 14.92817201  2553"
      },
      "geometry": {
        "type": "Point",
        "coordinates": [
          94.55142803739326,
          -10.300860832184968
        ]
      }
    },
    {
      "type": "Feature",
      "properties": {
        "norad_id": 66660,
        "name": "K-HERO",
        "group": "last-30-days",
        "lat": -19.95163307565865,
        "lon": 93.14290002973848,
        "alt_km": 591.4113710339261,
        "timestamp": "2025-12-14T18:52:54.243027+00:00",
        "meta_object_name": "K-HERO",
        "meta_object_id": "2025-274L",
        "meta_epoch": "2025-12-13T17:51:33.676992",
        "meta_mean_motion": 14.92966236,
        "meta_eccentricity": 0.00125729,
        "meta_inclination": 97.7387,
        "meta_ra_of_asc_node": 274.9471,
        "meta_arg_of_pericenter": 277.076,
        "meta_mean_anomaly": 82.903,
        "meta_ephemeris_type": 0,
        "meta_classification_type": "U",
        "meta_norad_cat_id": 66660,
        "meta_element_set_no": 999,
        "meta_rev_at_epoch": 255,
        "meta_bstar": 0.00037593724,
        "meta_mean_motion_dot": 3.854e-05,
        "meta_mean_motion_ddot": 0,
        "tle_line1": "1 66660U 25274L   25347.74413978  .00003854  00000+0  37594-3 0  9998",
        "tle_line2": "2 66660  97.7387 274.9471 0012572 277.0760  82.9030 14.92966236  2559"
      },
      "geometry": {
        "type": "Point",
        "coordinates": [
          93.14290002973848,
          -19.95163307565865
        ]
      }
    },
    {
      "type": "Feature",
      "properties": {
        "norad_id": 66661,
        "name": "SNUGLITE-III",
        "group": "last-30-days",
        "lat": -29.452575751828487,
        "lon": 91.57198445313124,
        "alt_km": 590.3121247657446,
        "timestamp": "2025-12-14T18:52:54.243038+00:00",
        "meta_object_name": "SNUGLITE-III",
        "meta_object_id": "2025-274M",
        "meta_epoch": "2025-12-13T17:49:07.204800",
        "meta_mean_motion": 14.93104187,
        "meta_eccentricity": 0.00132645,
        "meta_inclination": 97.7386,
        "meta_ra_of_asc_node": 274.9487,
        "meta_arg_of_pericenter": 278.2917,
        "meta_mean_anomaly": 81.6798,
        "meta_ephemeris_type": 0,
        "meta_classification_type": "U",
        "meta_norad_cat_id": 66661,
        "meta_element_set_no": 999,
        "meta_rev_at_epoch": 255,
        "meta_bstar": 0.00033044719,
        "meta_mean_motion_dot": 3.393e-05,
        "meta_mean_motion_ddot": 0,
        "tle_line1": "1 66661U 25274M   25347.74244450  .00003393  00000+0  33045-3 0  9991",
        "tle_line2": "2 66661  97.7386 274.9487 0013264 278.2917  81.6798 14.93104187  2559"
      },
      "geometry": {
        "type": "Point",
        "coordinates": [
          91.57198445313124,
          -29.452575751828487
        ]
      }
    }
  ]
}